NORAD_CAT_ID,OBJECT_NAME,OBJECT_TYPE,EPOCH,MEAN_MOTION,ECCENTRICITY,INCLINATION,RA_OF_ASC_NODE,ARG_OF_PERICENTER,MEAN_ANOMALY,BSTAR,MEAN_MOTION_DOT,MEAN_MOTION_DDOT,TLE_LINE0,TLE_LINE1,TLE_LINE2,SEMIMAJOR_AXIS,PERIOD,APOGEE,PERIGEE,DECAYED
55749.0,STARLINK-5560,PAYLOAD,2023-03-08 20:00:01,15.94702618,0.0033594,69.9999,141.6087,164.4043,249.9772,-0.0024882,-0.01006742,0.00031454,0 STARLINK-5560,1 55749U 23028J   23067.83334491 -.01006742  31454-3 -24882-2 0  9996,2 55749  69.9999 141.6087 0033594 164.4043 249.9772 15.94702618  1459,6667.28,90.299,311.543,266.747,0.0
55749.0,STARLINK-5560,PAYLOAD,2023-03-08 21:16:46,15.94785844,0.0034864,69.996,141.4525,162.5686,197.6729,-0.00092922,-0.00381396,5.2796e-05,0 STARLINK-5560,1 55749U 23028J   23067.88664450 -.00381396  52796-4 -92922-3 0  9996,2 55749  69.9960 141.4525 0034864 162.5686 197.6729 15.94785844  1469,6667.048,90.294,312.157,265.669,0.0
55749.0,STARLINK-5560,PAYLOAD,2023-03-09 22:00:00,15.92584917,0.0020573,69.9996,138.4541,170.5093,337.1162,-0.0028888,-0.01007926,0.00030846,0 STARLINK-5560,1 55749U 23028J   23068.91667824 -.01007926  30846-3 -28888-2 0  9994,2 55749  69.9996 138.4541 0020573 170.5093 337.1162 15.92584917  1621,6673.189,90.419,308.783,281.326,0.0
55749.0,STARLINK-5560,PAYLOAD,2023-03-10 06:00:00,15.91946583,0.0017723,69.9997,137.4857,174.1952,83.5309,-0.0030888,-0.01036787,0.0003229,0 STARLINK-5560,1 55749U 23028J   23069.25001157 -.01036787  32290-3 -30888-2 0  9998,2 55749  69.9997 137.4857 0017723 174.1952  83.5309 15.91946583  1678,6674.973,90.455,308.668,285.008,0.0
55749.0,STARLINK-5560,PAYLOAD,2023-03-10 14:00:01,15.91288112,0.0014942,70.0,136.5183,180.419,186.6337,-0.0031843,-0.01028776,0.00031622,0 STARLINK-5560,1 55749U 23028J   23069.58334491 -.01028776  31622-3 -31843-2 0  9993,2 55749  70.0000 136.5183 0014942 180.4190 186.6337 15.91288112  1732,6676.814,90.493,308.656,288.703,0.0
55749.0,STARLINK-5560,PAYLOAD,2023-03-10 22:00:00,15.90622705,0.0011726,69.9999,135.5513,189.3973,286.201,-0.0032157,-0.01000396,0.00029831,0 STARLINK-5560,1 55749U 23028J   23069.91667824 -.01000396  29831-3 -32157-2 0  9995,2 55749  69.9999 135.5513 0011726 189.3973 286.2010 15.90622705  1785,6678.676,90.531,308.373,292.71,0.0
55749.0,STARLINK-5560,PAYLOAD,2023-03-11 06:00:00,15.89982733,0.0009758,69.9999,134.5855,202.1981,21.1534,-0.0034015,-0.01022272,0.00030854,0 STARLINK-5560,1 55749U 23028J   23070.25001157 -.01022272  30854-3 -34015-2 0  9994,2 55749  69.9999 134.5855 0009758 202.1981  21.1534 15.89982733  1839,6680.468,90.567,308.852,295.814,0.0
55749.0,STARLINK-5560,PAYLOAD,2023-03-11 14:00:01,15.89329644,0.0008692,70.0001,133.6211,217.4291,112.9669,-0.0035363,-0.01027483,0.00030948,0 STARLINK-5560,1 55749U 23028J   23070.58335648 -.01027483  30948-3 -35363-2 0  9995,2 55749  70.0001 133.6211 0008692 217.4291 112.9669 15.89329644  1880,6682.298,90.604,309.971,298.355,0.0
55749.0,STARLINK-5560,PAYLOAD,2023-03-11 22:00:00,15.88674097,0.0008352,69.9997,132.6568,245.4046,191.1198,-0.0036178,-0.01017124,0.00030182,0 STARLINK-5560,1 55749U 23028J   23070.91667824 -.01017124  30182-3 -36178-2 0  9992,2 55749  69.9997 132.6568 0008352 245.4046 191.1198 15.88674097  1944,6684.136,90.642,311.584,300.419,0.0
55749.0,STARLINK-5560,PAYLOAD,2023-03-12 14:00:01,15.87354313,0.0009127,69.9997,130.7316,268.6844,17.8874,-0.00375,-0.00899234,0.0,0 STARLINK-5560,1 55749U 23028J   23071.58334491 -.00899234  00000-0 -37500-2 0  9999,2 55749  69.9997 130.7316 0009127 268.6844  17.8874 15.87354313  1308,6687.841,90.717,315.81,303.602,0.0
55749.0,STARLINK-5560,PAYLOAD,2023-03-12 22:00:00,15.86720525,0.0005385,69.9998,129.7709,278.4343,111.9773,-0.0040169,-0.0092719,0.0,0 STARLINK-5560,1 55749U 23028J   23071.91667824 -.00927190  00000-0 -40169-2 0  9993,2 55749  69.9998 129.7709 0005385 278.4343 111.9773 15.86720525  1303,6689.622,90.753,315.089,307.884,0.0
55749.0,STARLINK-5560,PAYLOAD,2023-03-13 14:00:01,15.85402118,0.0003596,70.0002,127.851,262.7713,332.9935,-0.0041758,-0.00904828,0.0,0 STARLINK-5560,1 55749U 23028J   23072.58334491 -.00904828  00000-0 -41758-2 0  9996,2 55749  70.0002 127.8510 0003596 262.7713 332.9935 15.85402118  1309,6693.33,90.829,317.602,312.788,0.0
55749.0,STARLINK-5560,PAYLOAD,2023-03-13 22:00:00,15.84750095,0.0003705,70.0,126.8925,273.3419,63.9237,-0.0043165,-0.00906211,0.0,0 STARLINK-5560,1 55749U 23028J   23072.91667824 -.00906211  00000-0 -43165-2 0  9994,2 55749  70.0000 126.8925 0003705 273.3419  63.9237 15.84750095  2259,6695.166,90.866,319.511,314.55,0.0
55749.0,STARLINK-5560,PAYLOAD,2023-03-14 14:00:01,15.83443029,0.000352,70.0002,124.9786,268.8601,269.0605,-0.0045698,-0.00901592,0.0,0 STARLINK-5560,1 55749U 23028J   23073.58334491 -.00901592  00000-0 -45698-2 0  9999,2 55749  70.0002 124.9786 0003520 268.8601 269.0605 15.83443029  1300,6698.849,90.941,323.072,318.356,0.0
55749.0,STARLINK-5560,PAYLOAD,2023-03-14 22:00:00,15.82802379,0.0003592,70.0003,124.0228,274.8047,2.2651,-0.004813,-0.00919334,0.0,0 STARLINK-5560,1 55749U 23028J   23073.91667824 -.00919334  00000-0 -48130-2 0  9992,2 55749  70.0003 124.0228 0003592 274.8047   2.2651 15.82802379  2410,6700.657,90.978,324.929,320.115,0.0
55749.0,STARLINK-5560,PAYLOAD,2023-03-15 14:00:01,15.81490112,0.0003604,69.9997,122.1142,273.3891,199.6442,-0.0050421,-0.00906917,0.0,0 STARLINK-5560,1 55749U 23028J   23074.58334491 -.00906917  00000-0 -50421-2 0  9996,2 55749  69.9997 122.1142 0003604 273.3891 199.6442 15.81490112  1301,6704.363,91.053,328.644,323.812,0.0
55749.0,STARLINK-5560,PAYLOAD,2023-03-15 22:00:00,15.80840029,0.0003486,70.0001,121.1612,269.3385,300.5005,-0.0052175,-0.00910145,0.0,0 STARLINK-5560,1 55749U 23028J   23074.91667824 -.00910145  00000-0 -52175-2 0  9998,2 55749  70.0001 121.1612 0003486 269.3385 300.5005 15.80840029  2575,6706.201,91.091,330.404,325.728,0.0
55749.0,STARLINK-5560,PAYLOAD,2023-03-16 14:00:01,15.79531068,0.0003638,70.0,119.2585,273.0198,128.0874,-0.00549,-0.00902612,0.0,0 STARLINK-5560,1 55749U 23028J   23075.58334491 -.00902612  00000-0 -54900-2 0  9991,2 55749  70.0000 119.2585 0003638 273.0198 128.0874 15.79531068  1309,6709.905,91.166,334.211,329.329,0.0
55749.0,STARLINK-5560,PAYLOAD,2023-03-16 22:00:00,15.78878,0.0003496,70.0002,118.3081,270.2301,225.3378,-0.0056508,-0.00901831,0.0,0 STARLINK-5560,1 55749U 23028J   23075.91667824 -.00901831  00000-0 -56508-2 0  9995,2 55749  70.0002 118.3081 0003496 270.2301 225.3378 15.78878000  1308,6711.755,91.204,335.967,331.274,0.0
55749.0,STARLINK-5560,PAYLOAD,2023-03-17 00:00:00,15.78714771,0.0003527,70.0001,118.071,267.3655,341.6953,-0.0056937,-0.00901975,0.0,0 STARLINK-5560,1 55749U 23028J   23076.00001157 -.00901975  00000-0 -56937-2 0  9992,2 55749  70.0001 118.0710 0003527 267.3655 341.6953 15.78714771  2741,6712.218,91.213,336.451,331.716,0.0
55749.0,STARLINK-5560,PAYLOAD,2023-03-17 14:00:01,15.77581893,0.0003651,69.9997,116.4108,271.2867,50.8501,-0.0060716,-0.00912843,0.0,0 STARLINK-5560,1 55749U 23028J   23076.58334491 -.00912843  00000-0 -60716-2 0  9991,2 55749  69.9997 116.4108 0003651 271.2867  50.8501 15.77581893  1307,6715.431,91.279,339.748,334.844,0.0
55749.0,STARLINK-5560,PAYLOAD,2023-03-17 22:00:00,15.76919473,0.0003611,70.0,115.4634,270.3327,143.9218,-0.006148,-0.00898844,0.0,0 STARLINK-5560,1 55749U 23028J   23076.91667824 -.00898844  00000-0 -61480-2 0  9990,2 55749  70.0000 115.4634 0003611 270.3327 143.9218 15.76919473  2897,6717.312,91.317,341.602,336.751,0.0
55749.0,STARLINK-5560,PAYLOAD,2023-03-18 22:00:00,15.74963251,0.0003639,69.9999,112.6265,277.3985,48.5018,-0.0067161,-0.0090052,0.0,0 STARLINK-5560,1 55749U 23028J   23077.91667824 -.00900520  00000-0 -67161-2 0  9998,2 55749  69.9999 112.6265 0003639 277.3985  48.5018 15.74963251  3044,6722.873,91.431,347.184,342.291,0.0
55749.0,STARLINK-5560,PAYLOAD,2023-03-19 14:00:01,15.73659145,0.000346,70.0,110.7402,272.5785,230.5065,-0.0071012,-0.0089969,0.0,0 STARLINK-5560,1 55749U 23028J   23078.58334491 -.00899690  00000-0 -71012-2 0  9998,2 55749  70.0000 110.7402 0003460 272.5785 230.5065 15.73659145  1304,6726.586,91.506,350.779,346.124,0.0
55749.0,STARLINK-5560,PAYLOAD,2023-03-19 22:00:00,15.73006805,0.0003483,70.0001,109.7981,267.5231,322.9815,-0.007304,-0.00899751,0.0,0 STARLINK-5560,1 55749U 23028J   23078.91667824 -.00899751  00000-0 -73040-2 0  9995,2 55749  70.0001 109.7981 0003483 267.5231 322.9815 15.73006805  3209,6728.446,91.544,352.655,347.968,0.0
55749.0,STARLINK-5560,PAYLOAD,2023-03-20 14:00:01,15.71723064,0.0003726,69.9923,107.9088,279.9815,123.0025,-0.0079626,-0.00925755,0.0,0 STARLINK-5560,1 55749U 23028J   23079.58334491 -.00925755  00000-0 -79626-2 0  9990,2 55749  69.9923 107.9088 0003726 279.9815 123.0025 15.71723064  1305,6732.109,91.619,356.483,351.466,0.0
55749.0,STARLINK-5560,PAYLOAD,2023-03-20 22:00:01,15.71013782,0.0003478,69.9929,106.9697,275.0449,213.0962,-0.0072932,-0.00832176,0.0,0 STARLINK-5560,1 55749U 23028J   23079.91668981 -.00832176  00000-0 -72932-2 0  9998,2 55749  69.9929 106.9697 0003478 275.0449 213.0962 15.71013782  3367,6734.135,91.661,358.343,353.658,0.0
55749.0,STARLINK-5560,PAYLOAD,2023-03-21 14:00:01,15.69920733,0.0003239,69.9958,105.0932,280.4194,15.5418,7.2839e-06,6.63e-06,0.0,0 STARLINK-5560,1 55749U 23028J   23080.58335648  .00000663  00000-0  72839-5 0  9999,2 55749  69.9958 105.0932 0003239 280.4194  15.5418 15.69920733  3465,6737.261,91.724,361.308,356.944,0.0
55749.0,STARLINK-5560,PAYLOAD,2023-03-21 22:00:00,15.69871388,0.0003192,69.9982,104.1558,270.5904,108.6546,0.00084987,0.00103012,0.0,0 STARLINK-5560,1 55749U 23028J   23080.91667824  .00103012  00000-0  84987-3 0  9997,2 55749  69.9982 104.1558 0003192 270.5904 108.6546 15.69871388  1301,6737.402,91.727,361.418,357.116,0.0
